[
    {
        "id": 1,
        "group": "A1",
        "surveyor_id": 1,
        "homes": [
            {
                "id": 5,
                "street_number": "6",
                "street_name": "Tremont Street",
                "unit_number": "9",
                "city": "Boston",
                "state": "MA",
                "zip_code": "2108",
                "building_type": "House"
            },
            {
                "id": 7,
                "street_number": "14",
                "street_name": "Tremont Street",
                "unit_number": "9",
                "city": "Boston",
                "state": "MA",
                "zip_code": "2108",
                "building_type": "House"
            },
            {
                "id": 19,
                "street_number": "6",
                "street_name": "Tremont Street",
                "unit_number": "5",
                "city": "Boston",
                "state": "MA",
                "zip_code": "2108",
                "building_type": "House"
            },
            {
                "id": 21,
                "street_number": "6",
                "street_name": "Beacon Street",
                "unit_number": "5",
                "city": "Boston",
                "state": "MA",
                "zip_code": "2108",
                "building_type": "House"
            },
            {
                "id": 22,
                "street_number": "5",
                "street_name": "Beacon Street",
                "unit_number": "4",
                "city": "Boston",
                "state": "MA",
                "zip_code": "2108",
                "building_type": "House"
            },
            {
                "id": 25,
                "street_number": "2",
                "street_name": "Beacon Street",
                "unit_number": "1",
                "city": "Boston",
                "state": "MA",
                "zip_code": "2108",
                "building_type": "House"
            },
            {
                "id": 31,
                "street_number": "7",
                "street_name": "Tremont Street",
                "unit_number": "6",
                "city": "Boston",
                "state": "MA",
                "zip_code": "2108",
                "building_type": "House"
            },
            {
                "id": 37,
                "street_number": "1",
                "street_name": "Tremont Street",
                "unit_number": "3",
                "city": "Boston",
                "state": "MA",
                "zip_code": "2108",
                "building_type": "House"
            },
            {
                "id": 38,
                "street_number": "16",
                "street_name": "Beacon Street",
                "unit_number": "3",
                "city": "Boston",
                "state": "MA",
                "zip_code": "2108",
                "building_type": "House"
            },
            {
                "id": 50,
                "street_number": "9",
                "street_name": "Beacon Street",
                "unit_number": "7",
                "city": "Boston",
                "state": "MA",
                "zip_code": "2108",
                "building_type": "House"
            },
            {
                "id": 51,
                "street_number": "12",
                "street_name": "Beacon Street",
                "unit_number": "9",
                "city": "Boston",
                "state": "MA",
                "zip_code": "2108",
                "building_type": "House"
            },
            {
                "id": 52,
                "street_number": "19",
                "street_name": "Tremont Street",
                "unit_number": "2",
                "city": "Boston",
                "state": "MA",
                "zip_code": "2108",
                "building_type": "House"
            },
            {
                "id": 54,
                "street_number": "9",
                "street_name": "Beacon Street",
                "unit_number": "8",
                "city": "Boston",
                "state": "MA",
                "zip_code": "2108",
                "building_type": "House"
            },
            {
                "id": 60,
                "street_number": "3",
                "street_name": "Beacon Street",
                "unit_number": "1",
                "city": "Boston",
                "state": "MA",
                "zip_code": "2108",
                "building_type": "House"
            },
            {
                "id": 71,
                "street_number": "8",
                "street_name": "Beacon Street",
                "unit_number": "2",
                "city": "Boston",
                "state": "MA",
                "zip_code": "2108",
                "building_type": "House"
            },
            {
                "id": 75,
                "street_number": "3",
                "street_name": "Beacon Street",
                "unit_number": "2",
                "city": "Boston",
                "state": "MA",
                "zip_code": "2108",
                "building_type": "House"
            },
            {
                "id": 76,
                "street_number": "7",
                "street_name": "Tremont Street",
                "unit_number": "9",
                "city": "Boston",
                "state": "MA",
                "zip_code": "2108",
                "building_type": "House"
            },
            {
                "id": 77,
                "street_number": "17",
                "street_name": "Beacon Street",
                "unit_number": "3",
                "city": "Boston",
                "state": "MA",
                "zip_code": "2108",
                "building_type": "House"
            },
            {
                "id": 78,
                "street_number": "11",
                "street_name": "Tremont Street",
                "unit_number": "3",
                "city": "Boston",
                "state": "MA",
                "zip_code": "2108",
                "building_type": "House"
            },
            {
                "id": 80,
                "street_number": "12",
                "street_name": "Beacon Street",
                "unit_number": "1",
                "city": "Boston",
                "state": "MA",
                "zip_code": "2108",
                "building_type": "House"
            },
            {
                "id": 82,
                "street_number": "11",
                "street_name": "Beacon Street",
                "unit_number": "8",
                "city": "Boston",
                "state": "MA",
                "zip_code": "2108",
                "building_type": "House"
            },
            {
                "id": 87,
                "street_number": "10",
                "street_name": "Beacon Street",
                "unit_number": "4",
                "city": "Boston",
                "state": "MA",
                "zip_code": "2108",
                "building_type": "House"
            },
            {
                "id": 88,
                "street_number": "4",
                "street_name": "Tremont Street",
                "unit_number": "8",
                "city": "Boston",
                "state": "MA",
                "zip_code": "2108",
                "building_type": "House"
            },
            {
                "id": 90,
                "street_number": "8",
                "street_name": "Tremont Street",
                "unit_number": "8",
                "city": "Boston",
                "state": "MA",
                "zip_code": "2108",
                "building_type": "House"
            },
            {
                "id": 92,
                "street_number": "7",
                "street_name": "Tremont Street",
                "unit_number": "3",
                "city": "Boston",
                "state": "MA",
                "zip_code": "2108",
                "building_type": "House"
            },
            {
                "id": 100,
                "street_number": "18",
                "street_name": "Tremont Street",
                "unit_number": "6",
                "city": "Boston",
                "state": "MA",
                "zip_code": "2108",
                "building_type": "House"
            }
        ]
    },
    {
        "id": 2,
        "group": "A2",
        "surveyor_id": 1,
        "homes": [
            {
                "id": 1,
                "street_number": "1",
                "street_name": "Hanover Street",
                "unit_number": "5",
                "city": "Boston",
                "state": "MA",
                "zip_code": "2108",
                "building_type": "House"
            },
            {
                "id": 3,
                "street_number": "6",
                "street_name": "Hanover Street",
                "unit_number": "6",
                "city": "Boston",
                "state": "MA",
                "zip_code": "2108",
                "building_type": "House"
            },
            {
                "id": 12,
                "street_number": "1",
                "street_name": "Hanover Street",
                "unit_number": "1",
                "city": "Boston",
                "state": "MA",
                "zip_code": "2108",
                "building_type": "House"
            },
            {
                "id": 16,
                "street_number": "8",
                "street_name": "Hanover Street",
                "unit_number": "9",
                "city": "Boston",
                "state": "MA",
                "zip_code": "2108",
                "building_type": "House"
            },
            {
                "id": 20,
                "street_number": "17",
                "street_name": "Hanover Street",
                "unit_number": "3",
                "city": "Boston",
                "state": "MA",
                "zip_code": "2108",
                "building_type": "House"
            },
            {
                "id": 40,
                "street_number": "3",
                "street_name": "Hanover Street",
                "unit_number": "8",
                "city": "Boston",
                "state": "MA",
                "zip_code": "2108",
                "building_type": "House"
            },
            {
                "id": 41,
                "street_number": "6",
                "street_name": "Hanover Street",
                "unit_number": "4",
                "city": "Boston",
                "state": "MA",
                "zip_code": "2108",
                "building_type": "House"
            },
            {
                "id": 45,
                "street_number": "11",
                "street_name": "Hanover Street",
                "unit_number": "2",
                "city": "Boston",
                "state": "MA",
                "zip_code": "2108",
                "building_type": "House"
            },
            {
                "id": 65,
                "street_number": "7",
                "street_name": "Hanover Street",
                "unit_number": "3",
                "city": "Boston",
                "state": "MA",
                "zip_code": "2108",
                "building_type": "House"
            },
            {
                "id": 81,
                "street_number": "12",
                "street_name": "Hanover Street",
                "unit_number": "9",
                "city": "Boston",
                "state": "MA",
                "zip_code": "2108",
                "building_type": "House"
            },
            {
                "id": 89,
                "street_number": "8",
                "street_name": "Hanover Street",
                "unit_number": "4",
                "city": "Boston",
                "state": "MA",
                "zip_code": "2108",
                "building_type": "House"
            }
        ]
    },
    {
        "id": 3,
        "group": "B",
        "surveyor_id": 2,
        "homes": [
            {
                "id": 4,
                "street_number": "14",
                "street_name": "Boylston Street",
                "unit_number": "5",
                "city": "Boston",
                "state": "MA",
                "zip_code": "2116",
                "building_type": "House"
            },
            {
                "id": 9,
                "street_number": "7",
                "street_name": "Boylston Street",
                "unit_number": "6",
                "city": "Boston",
                "state": "MA",
                "zip_code": "2116",
                "building_type": "House"
            },
            {
                "id": 15,
                "street_number": "19",
                "street_name": "Boylston Street",
                "unit_number": "3",
                "city": "Boston",
                "state": "MA",
                "zip_code": "2116",
                "building_type": "House"
            },
            {
                "id": 18,
                "street_number": "16",
                "street_name": "Boylston Street",
                "unit_number": "4",
                "city": "Boston",
                "state": "MA",
                "zip_code": "2116",
                "building_type": "House"
            },
            {
                "id": 26,
                "street_number": "3",
                "street_name": "Newbury Street",
                "unit_number": "7",
                "city": "Boston",
                "state": "MA",
                "zip_code": "2116",
                "building_type": "House"
            },
            {
                "id": 29,
                "street_number": "2",
                "street_name": "Newbury Street",
                "unit_number": "1",
                "city": "Boston",
                "state": "MA",
                "zip_code": "2116",
                "building_type": "House"
            },
            {
                "id": 30,
                "street_number": "11",
                "street_name": "Newbury Street",
                "unit_number": "7",
                "city": "Boston",
                "state": "MA",
                "zip_code": "2116",
                "building_type": "House"
            },
            {
                "id": 32,
                "street_number": "18",
                "street_name": "Boylston Street",
                "unit_number": "3",
                "city": "Boston",
                "state": "MA",
                "zip_code": "2116",
                "building_type": "House"
            },
            {
                "id": 33,
                "street_number": "16",
                "street_name": "Boylston Street",
                "unit_number": "3",
                "city": "Boston",
                "state": "MA",
                "zip_code": "2116",
                "building_type": "House"
            },
            {
                "id": 39,
                "street_number": "9",
                "street_name": "Boylston Street",
                "unit_number": "9",
                "city": "Boston",
                "state": "MA",
                "zip_code": "2116",
                "building_type": "House"
            },
            {
                "id": 46,
                "street_number": "15",
                "street_name": "Boylston Street",
                "unit_number": "4",
                "city": "Boston",
                "state": "MA",
                "zip_code": "2116",
                "building_type": "House"
            },
            {
                "id": 53,
                "street_number": "5",
                "street_name": "Boylston Street",
                "unit_number": "6",
                "city": "Boston",
                "state": "MA",
                "zip_code": "2116",
                "building_type": "House"
            },
            {
                "id": 56,
                "street_number": "9",
                "street_name": "Newbury Street",
                "unit_number": "5",
                "city": "Boston",
                "state": "MA",
                "zip_code": "2116",
                "building_type": "House"
            },
            {
                "id": 57,
                "street_number": "16",
                "street_name": "Newbury Street",
                "unit_number": "1",
                "city": "Boston",
                "state": "MA",
                "zip_code": "2116",
                "building_type": "House"
            },
            {
                "id": 61,
                "street_number": "7",
                "street_name": "Boylston Street",
                "unit_number": "7",
                "city": "Boston",
                "state": "MA",
                "zip_code": "2116",
                "building_type": "House"
            },
            {
                "id": 62,
                "street_number": "6",
                "street_name": "Newbury Street",
                "unit_number": "5",
                "city": "Boston",
                "state": "MA",
                "zip_code": "2116",
                "building_type": "House"
            },
            {
                "id": 66,
                "street_number": "5",
                "street_name": "Boylston Street",
                "unit_number": "5",
                "city": "Boston",
                "state": "MA",
                "zip_code": "2116",
                "building_type": "House"
            },
            {
                "id": 69,
                "street_number": "17",
                "street_name": "Boylston Street",
                "unit_number": "1",
                "city": "Boston",
                "state": "MA",
                "zip_code": "2116",
                "building_type": "House"
            },
            {
                "id": 72,
                "street_number": "5",
                "street_name": "Newbury Street",
                "unit_number": "4",
                "city": "Boston",
                "state": "MA",
                "zip_code": "2116",
                "building_type": "House"
            },
            {
                "id": 79,
                "street_number": "14",
                "street_name": "Newbury Street",
                "unit_number": "8",
                "city": "Boston",
                "state": "MA",
                "zip_code": "2116",
                "building_type": "House"
            },
            {
                "id": 83,
                "street_number": "2",
                "street_name": "Newbury Street",
                "unit_number": "6",
                "city": "Boston",
                "state": "MA",
                "zip_code": "2116",
                "building_type": "House"
            },
            {
                "id": 85,
                "street_number": "16",
                "street_name": "Boylston Street",
                "unit_number": "2",
                "city": "Boston",
                "state": "MA",
                "zip_code": "2116",
                "building_type": "House"
            },
            {
                "id": 86,
                "street_number": "6",
                "street_name": "Boylston Street",
                "unit_number": "1",
                "city": "Boston",
                "state": "MA",
                "zip_code": "2116",
                "building_type": "House"
            },
            {
                "id": 93,
                "street_number": "1",
                "street_name": "Newbury Street",
                "unit_number": "4",
                "city": "Boston",
                "state": "MA",
                "zip_code": "2116",
                "building_type": "House"
            },
            {
                "id": 94,
                "street_number": "3",
                "street_name": "Boylston Street",
                "unit_number": "9",
                "city": "Boston",
                "state": "MA",
                "zip_code": "2116",
                "building_type": "House"
            },
            {
                "id": 95,
                "street_number": "4",
                "street_name": "Boylston Street",
                "unit_number": "5",
                "city": "Boston",
                "state": "MA",
                "zip_code": "2116",
                "building_type": "House"
            },
            {
                "id": 98,
                "street_number": "13",
                "street_name": "Newbury Street",
                "unit_number": "9",
                "city": "Boston",
                "state": "MA",
                "zip_code": "2116",
                "building_type": "House"
            }
        ]
    },
    {
        "id": 4,
        "group": "C",
        "surveyor_id": 3,
        "homes": [
            {
                "id": 2,
                "street_number": "7",
                "street_name": "Fenway",
                "unit_number": "5",
                "city": "Boston",
                "state": "MA",
                "zip_code": "2215",
                "building_type": "House"
            },
            {
                "id": 10,
                "street_number": "1",
                "street_name": "Fenway",
                "unit_number": "8",
                "city": "Boston",
                "state": "MA",
                "zip_code": "2215",
                "building_type": "House"
            },
            {
                "id": 11,
                "street_number": "1",
                "street_name": "Fenway",
                "unit_number": "9",
                "city": "Boston",
                "state": "MA",
                "zip_code": "2215",
                "building_type": "House"
            },
            {
                "id": 17,
                "street_number": "2",
                "street_name": "Fenway",
                "unit_number": "4",
                "city": "Boston",
                "state": "MA",
                "zip_code": "2215",
                "building_type": "House"
            },
            {
                "id": 23,
                "street_number": "18",
                "street_name": "Fenway",
                "unit_number": "6",
                "city": "Boston",
                "state": "MA",
                "zip_code": "2215",
                "building_type": "House"
            },
            {
                "id": 34,
                "street_number": "8",
                "street_name": "Fenway",
                "unit_number": "4",
                "city": "Boston",
                "state": "MA",
                "zip_code": "2215",
                "building_type": "House"
            },
            {
                "id": 42,
                "street_number": "6",
                "street_name": "Fenway",
                "unit_number": "7",
                "city": "Boston",
                "state": "MA",
                "zip_code": "2215",
                "building_type": "House"
            },
            {
                "id": 55,
                "street_number": "13",
                "street_name": "Fenway",
                "unit_number": "5",
                "city": "Boston",
                "state": "MA",
                "zip_code": "2215",
                "building_type": "House"
            },
            {
                "id": 63,
                "street_number": "13",
                "street_name": "Fenway",
                "unit_number": "2",
                "city": "Boston",
                "state": "MA",
                "zip_code": "2215",
                "building_type": "House"
            },
            {
                "id": 70,
                "street_number": "13",
                "street_name": "Fenway",
                "unit_number": "6",
                "city": "Boston",
                "state": "MA",
                "zip_code": "2215",
                "building_type": "House"
            },
            {
                "id": 74,
                "street_number": "6",
                "street_name": "Fenway",
                "unit_number": "5",
                "city": "Boston",
                "state": "MA",
                "zip_code": "2215",
                "building_type": "House"
            }
        ]
    },
    {
        "id": 5,
        "group": "D",
        "surveyor_id": 4,
        "homes": [
            {
                "id": 14,
                "street_number": "4",
                "street_name": "Federal Street",
                "unit_number": "7",
                "city": "Boston",
                "state": "MA",
                "zip_code": "2110",
                "building_type": "House"
            },
            {
                "id": 58,
                "street_number": "15",
                "street_name": "Federal Street",
                "unit_number": "1",
                "city": "Boston",
                "state": "MA",
                "zip_code": "2110",
                "building_type": "House"
            },
            {
                "id": 64,
                "street_number": "12",
                "street_name": "Federal Street",
                "unit_number": "1",
                "city": "Boston",
                "state": "MA",
                "zip_code": "2110",
                "building_type": "House"
            },
            {
                "id": 73,
                "street_number": "19",
                "street_name": "Federal Street",
                "unit_number": "9",
                "city": "Boston",
                "state": "MA",
                "zip_code": "2110",
                "building_type": "House"
            }
        ]
    },
    {
        "id": 6,
        "group": "E1",
        "surveyor_id": 5,
        "homes": [
            {
                "id": 28,
                "street_number": "17",
                "street_name": "Dorchester Avenue",
                "unit_number": "2",
                "city": "Boston",
                "state": "MA",
                "zip_code": "2127",
                "building_type": "House"
            },
            {
                "id": 44,
                "street_number": "14",
                "street_name": "Dorchester Avenue",
                "unit_number": "9",
                "city": "Boston",
                "state": "MA",
                "zip_code": "2127",
                "building_type": "House"
            },
            {
                "id": 47,
                "street_number": "5",
                "street_name": "Dorchester Avenue",
                "unit_number": "9",
                "city": "Boston",
                "state": "MA",
                "zip_code": "2127",
                "building_type": "House"
            },
            {
                "id": 48,
                "street_number": "11",
                "street_name": "Dorchester Avenue",
                "unit_number": "5",
                "city": "Boston",
                "state": "MA",
                "zip_code": "2127",
                "building_type": "House"
            },
            {
                "id": 59,
                "street_number": "12",
                "street_name": "Dorchester Avenue",
                "unit_number": "3",
                "city": "Boston",
                "state": "MA",
                "zip_code": "2127",
                "building_type": "House"
            },
            {
                "id": 67,
                "street_number": "11",
                "street_name": "Dorchester Avenue",
                "unit_number": "7",
                "city": "Boston",
                "state": "MA",
                "zip_code": "2127",
                "building_type": "House"
            },
            {
                "id": 68,
                "street_number": "1",
                "street_name": "Dorchester Avenue",
                "unit_number": "3",
                "city": "Boston",
                "state": "MA",
                "zip_code": "2127",
                "building_type": "House"
            },
            {
                "id": 96,
                "street_number": "7",
                "street_name": "Dorchester Avenue",
                "unit_number": "5",
                "city": "Boston",
                "state": "MA",
                "zip_code": "2127",
                "building_type": "House"
            },
            {
                "id": 97,
                "street_number": "16",
                "street_name": "Dorchester Avenue",
                "unit_number": "6",
                "city": "Boston",
                "state": "MA",
                "zip_code": "2127",
                "building_type": "House"
            },
            {
                "id": 99,
                "street_number": "15",
                "street_name": "Dorchester Avenue",
                "unit_number": "9",
                "city": "Boston",
                "state": "MA",
                "zip_code": "2127",
                "building_type": "House"
            }
        ]
    },
    {
        "id": 7,
        "group": "E2",
        "surveyor_id": 5,
        "homes": [
            {
                "id": 6,
                "street_number": "12",
                "street_name": "Commonwealth Avenue",
                "unit_number": "2",
                "city": "Boston",
                "state": "MA",
                "zip_code": "2135",
                "building_type": "House"
            },
            {
                "id": 8,
                "street_number": "5",
                "street_name": "Commonwealth Avenue",
                "unit_number": "4",
                "city": "Boston",
                "state": "MA",
                "zip_code": "2135",
                "building_type": "House"
            },
            {
                "id": 13,
                "street_number": "19",
                "street_name": "Commonwealth Avenue",
                "unit_number": "3",
                "city": "Boston",
                "state": "MA",
                "zip_code": "2135",
                "building_type": "House"
            },
            {
                "id": 24,
                "street_number": "13",
                "street_name": "Commonwealth Avenue",
                "unit_number": "6",
                "city": "Boston",
                "state": "MA",
                "zip_code": "2135",
                "building_type": "House"
            },
            {
                "id": 27,
                "street_number": "1",
                "street_name": "Commonwealth Avenue",
                "unit_number": "6",
                "city": "Boston",
                "state": "MA",
                "zip_code": "2135",
                "building_type": "House"
            },
            {
                "id": 35,
                "street_number": "6",
                "street_name": "Commonwealth Avenue",
                "unit_number": "5",
                "city": "Boston",
                "state": "MA",
                "zip_code": "2135",
                "building_type": "House"
            },
            {
                "id": 36,
                "street_number": "18",
                "street_name": "Commonwealth Avenue",
                "unit_number": "2",
                "city": "Boston",
                "state": "MA",
                "zip_code": "2135",
                "building_type": "House"
            },
            {
                "id": 43,
                "street_number": "6",
                "street_name": "Commonwealth Avenue",
                "unit_number": "9",
                "city": "Boston",
                "state": "MA",
                "zip_code": "2135",
                "building_type": "House"
            },
            {
                "id": 49,
                "street_number": "18",
                "street_name": "Commonwealth Avenue",
                "unit_number": "9",
                "city": "Boston",
                "state": "MA",
                "zip_code": "2135",
                "building_type": "House"
            },
            {
                "id": 84,
                "street_number": "13",
                "street_name": "Commonwealth Avenue",
                "unit_number": "1",
                "city": "Boston",
                "state": "MA",
                "zip_code": "2135",
                "building_type": "House"
            },
            {
                "id": 91,
                "street_number": "7",
                "street_name": "Commonwealth Avenue",
                "unit_number": "9",
                "city": "Boston",
                "state": "MA",
                "zip_code": "2135",
                "building_type": "House"
            }
        ]
    }
]
