[
  {
    "hid": 13,
    "address": "357 Sage Pass",
    "zipcode": "702324",
    "completed": "yes",
    "surveyor": "Deanne Sherewood",
    "city": "Mulong"
  },
  {
    "hid": 2,
    "address": "7 Lillian Lane",
    "zipcode": "938577",
    "completed": "no",
    "surveyor": "Alana Ceschini",
    "city": "Banjar Baleagung"
  },
  {
    "hid": 3,
    "address": "357 Sage Pass",
    "zipcode": "702324",
    "completed": "yes",
    "surveyor": "Deanne Sherewood",
    "city": "Mulong"
  },
  {
    "hid": 4,
    "address": "60 Spaight Circle",
    "zipcode": "804512",
    "completed": "yes",
    "surveyor": "Christye Borthe",
    "city": "Kawalimukti"
  },
  {
    "hid": 5,
    "address": "575 Barnett Way",
    "zipcode": "355821",
    "completed": "no",
    "surveyor": "Nixie Gregorowicz",
    "city": "Libušín"
  },
  {
    "hid": 6,
    "address": "3 Lindbergh Park",
    "zipcode": "692908",
    "completed": "no",
    "surveyor": "Frank Pittford",
    "city": "Sumberbatas"
  },
  {
    "hid": 7,
    "address": "679 Eagle Crest Drive",
    "zipcode": "909169",
    "completed": "no",
    "surveyor": "Jemima Lane",
    "city": "Forécariah"
  },
  {
    "hid": 8,
    "address": "22514 Riverside Park",
    "zipcode": "822803",
    "completed": "yes",
    "surveyor": "Haleigh Death",
    "city": "Gŭlŭbovo"
  },
  {
    "hid": 9,
    "address": "95782 Carberry Way",
    "zipcode": "627343",
    "completed": "no",
    "surveyor": "Ruben Wickmann",
    "city": "Huangjia"
  },
  {
    "hid": 10,
    "address": "68599 American Crossing",
    "zipcode": "651138",
    "completed": "no",
    "surveyor": "Bunnie Macourek",
    "city": "Eišiškės"
  }
]
