{
  "surveyorViewAssignment": [
    {
      "id": 1,
      "group": "A1",
      "surveyor_id": 1,
      "homes": [
        {
          "id": 1,
          "visit_order": 0,
          "street_number": "38",
          "street_name": "COLUMBIA RD",
          "city": "DORCHESTER",
          "zip_code": 2121,
          "latitude": "42.30389054069225",
          "longitude": "-71.08333573846997",
          "completed": true
        },
        {
          "id": 1,
          "visit_order": 1,
          "street_number": "388",
          "street_name": "SEAVER ST",
          "city": "DORCHESTER",
          "zip_code": 2121,
          "latitude": "42.30396140002191",
          "longitude": "-71.08175456568082",
          "completed": false
        },
        {
          "id": 1,
          "visit_order": 2,
          "street_number": "407",
          "street_name": "SEAVER ST",
          "city": "DORCHESTER",
          "zip_code": 2121,
          "latitude": "42.303246092776",
          "longitude": "-71.08137065607954",
          "completed": false
        },
        {
          "id": 1,
          "visit_order": 3,
          "street_number": "412",
          "street_name": "SEAVER ST",
          "city": "DORCHESTER",
          "zip_code": 2121,
          "latitude": "42.3034207923003",
          "longitude": "-71.08091177675175",
          "completed": false
        },
        {
          "id": 1,
          "visit_order": 4,
          "street_number": "31",
          "street_name": "GLENARM ST",
          "city": "DORCHESTER",
          "zip_code": 2121,
          "latitude": "42.3038065430056",
          "longitude": "-71.08114065856697",
          "completed": true
        },
        {
          "id": 1,
          "visit_order": 5,
          "street_number": "22",
          "street_name": "GLENARM ST",
          "city": "DORCHESTER",
          "zip_code": 2121,
          "latitude": "42.3038398502742",
          "longitude": "-71.08046168726955",
          "completed": true
        },
        {
          "id": 1,
          "visit_order": 6,
          "street_number": "19",
          "street_name": "MERRILL ST",
          "city": "DORCHESTER",
          "zip_code": 2121,
          "latitude": "42.30366332851845",
          "longitude": "-71.08000341073918",
          "completed": true
        },
        {
          "id": 1,
          "visit_order": 7,
          "street_number": "15",
          "street_name": "FENELON ST",
          "city": "DORCHESTER",
          "zip_code": 2121,
          "latitude": "42.3035705192268",
          "longitude": "-71.07967614301478",
          "completed": true
        },
        {
          "id": 1,
          "visit_order": 8,
          "street_number": "427",
          "street_name": "SEAVER ST",
          "city": "DORCHESTER",
          "zip_code": 2121,
          "latitude": "42.30269666085155",
          "longitude": "-71.08054559373096",
          "completed": true
        },
        {
          "id": 1,
          "visit_order": 9,
          "street_number": "425",
          "street_name": "SEAVER ST",
          "city": "DORCHESTER",
          "zip_code": 2121,
          "latitude": "42.3027871311504",
          "longitude": "-71.08068250050073",
          "completed": true
        },
        {
          "id": 1,
          "visit_order": 10,
          "street_number": "52",
          "street_name": "ERIE ST",
          "city": "DORCHESTER",
          "zip_code": 2121,
          "latitude": "42.302344718115606",
          "longitude": "-71.0802765347629",
          "completed": true
        },
        {
          "id": 1,
          "visit_order": 11,
          "street_number": "56",
          "street_name": "ERIE ST",
          "city": "DORCHESTER",
          "zip_code": 2121,
          "latitude": "42.3022581770646",
          "longitude": "-71.08049811981127",
          "completed": true
        },
        {
          "id": 1,
          "visit_order": 12,
          "street_number": "58",
          "street_name": "ERIE ST",
          "city": "DORCHESTER",
          "zip_code": 2121,
          "latitude": "42.30221183756595",
          "longitude": "-71.08061581105792",
          "completed": false
        },
        {
          "id": 1,
          "visit_order": 13,
          "street_number": "40",
          "street_name": "HEWINS ST",
          "city": "DORCHESTER",
          "zip_code": 2121,
          "latitude": "42.30282544229305",
          "longitude": "-71.08119880796401",
          "completed": false
        },
        {
          "id": 1,
          "visit_order": 14,
          "street_number": "20",
          "street_name": "HEWINS ST",
          "city": "DORCHESTER",
          "zip_code": 2121,
          "latitude": "42.30329035094936",
          "longitude": "-71.0818948584769",
          "completed": false
        },
        {
          "id": 1,
          "visit_order": 15,
          "street_number": "15",
          "street_name": "HEWINS ST",
          "city": "DORCHESTER",
          "zip_code": 2121,
          "latitude": "42.303184886298496",
          "longitude": "-71.08239062886187",
          "completed": true
        },
        {
          "id": 1,
          "visit_order": 16,
          "street_number": "18",
          "street_name": "WOLCOTT ST",
          "city": "DORCHESTER",
          "zip_code": 2121,
          "latitude": "42.3030206797415",
          "longitude": "-71.0825527802559",
          "completed": true
        },
        {
          "id": 1,
          "visit_order": 17,
          "street_number": "22",
          "street_name": "WOLCOTT ST",
          "city": "DORCHESTER",
          "zip_code": 2121,
          "latitude": "42.302921448106346",
          "longitude": "-71.08241858083002",
          "completed": true
        },
        {
          "id": 1,
          "visit_order": 18,
          "street_number": "2",
          "street_name": "MICHIGAN AV",
          "city": "DORCHESTER",
          "zip_code": 2121,
          "latitude": "42.3031311675475",
          "longitude": "-71.08381025092461",
          "completed": true
        },
        {
          "id": 1,
          "visit_order": 19,
          "street_number": "14",
          "street_name": "MICHIGAN AV",
          "city": "DORCHESTER",
          "zip_code": 2121,
          "latitude": "42.30265038431455",
          "longitude": "-71.08311402340806",
          "completed": true
        },
        {
          "id": 1,
          "visit_order": 20,
          "street_number": "25",
          "street_name": "MICHIGAN AV",
          "city": "DORCHESTER",
          "zip_code": 2121,
          "latitude": "42.3022971190222",
          "longitude": "-71.08337377013359",
          "completed": true
        },
        {
          "id": 1,
          "visit_order": 21,
          "street_number": "132  138",
          "street_name": "ERIE ST",
          "city": "DORCHESTER",
          "zip_code": 2121,
          "latitude": "42.30118681700155",
          "longitude": "-71.08290657091305",
          "completed": true
        },
        {
          "id": 1,
          "visit_order": 22,
          "street_number": "81",
          "street_name": "ELLINGTON ST",
          "city": "DORCHESTER",
          "zip_code": 2121,
          "latitude": "42.30099180231015",
          "longitude": "-71.08214818511141",
          "completed": true
        },
        {
          "id": 1,
          "visit_order": 23,
          "street_number": "86",
          "street_name": "ELLINGTON ST",
          "city": "DORCHESTER",
          "zip_code": 2121,
          "latitude": "42.3013700500759",
          "longitude": "-71.08209752565895",
          "completed": true
        },
        {
          "id": 1,
          "visit_order": 24,
          "street_number": "136",
          "street_name": "ELLINGTON ST",
          "city": "DORCHESTER",
          "zip_code": 2121,
          "latitude": "42.30217575047925",
          "longitude": "-71.0800719908473",
          "completed": true
        },
        {
          "id": 1,
          "visit_order": 25,
          "street_number": "38",
          "street_name": "GREENWOOD ST",
          "city": "DORCHESTER",
          "zip_code": 2121,
          "latitude": "42.30083055491585",
          "longitude": "-71.07958850128722",
          "completed": true
        },
        {
          "id": 1,
          "visit_order": 26,
          "street_number": "54 A54",
          "street_name": "GREENWOOD ST",
          "city": "DORCHESTER",
          "zip_code": 2121,
          "latitude": "42.3002666323173",
          "longitude": "-71.07964526789175",
          "completed": true
        },
        {
          "id": 1,
          "visit_order": 27,
          "street_number": "24  26",
          "street_name": "HARLEM ST",
          "city": "DORCHESTER",
          "zip_code": 2121,
          "latitude": "42.3004336064236",
          "longitude": "-71.08104654997246",
          "completed": true
        },
        {
          "id": 1,
          "visit_order": 28,
          "street_number": "19",
          "street_name": "HARLEM ST",
          "city": "DORCHESTER",
          "zip_code": 2121,
          "latitude": "42.300029464862",
          "longitude": "-71.08093449894116",
          "completed": true
        },
        {
          "id": 1,
          "visit_order": 29,
          "street_number": "12  14",
          "street_name": "HARLEM ST",
          "city": "DORCHESTER",
          "zip_code": 2121,
          "latitude": "42.300338031414896",
          "longitude": "-71.08153224014654",
          "completed": true
        },
        {
          "id": 1,
          "visit_order": 30,
          "street_number": "63",
          "street_name": "GLENWAY ST",
          "city": "DORCHESTER",
          "zip_code": 2121,
          "latitude": "42.3004587911065",
          "longitude": "-71.0833365772121",
          "completed": true
        },
        {
          "id": 1,
          "visit_order": 31,
          "street_number": "37",
          "street_name": "FOWLER ST",
          "city": "DORCHESTER",
          "zip_code": 2121,
          "latitude": "42.30043725312095",
          "longitude": "-71.08232783521018",
          "completed": true
        },
        {
          "id": 1,
          "visit_order": 32,
          "street_number": "36  38",
          "street_name": "FOWLER ST",
          "city": "DORCHESTER",
          "zip_code": 2121,
          "latitude": "42.30073282747645",
          "longitude": "-71.08245993747805",
          "completed": true
        },
        {
          "id": 1,
          "visit_order": 33,
          "street_number": "63  61",
          "street_name": "FOWLER ST",
          "city": "DORCHESTER",
          "zip_code": 2121,
          "latitude": "42.30066637548415",
          "longitude": "-71.0813239415662",
          "completed": true
        },
        {
          "id": 1,
          "visit_order": 34,
          "street_number": "83  81",
          "street_name": "FOWLER ST",
          "city": "DORCHESTER",
          "zip_code": 2121,
          "latitude": "42.30082941565965",
          "longitude": "-71.08061715576187",
          "completed": true
        },
        {
          "id": 1,
          "visit_order": 35,
          "street_number": "47",
          "street_name": "MCLELLAN ST",
          "city": "DORCHESTER",
          "zip_code": 2121,
          "latitude": "42.29981984225595",
          "longitude": "-71.0844066870452",
          "completed": true
        },
        {
          "id": 1,
          "visit_order": 36,
          "street_number": "44",
          "street_name": "MCLELLAN ST",
          "city": "DORCHESTER",
          "zip_code": 2121,
          "latitude": "42.300154566882",
          "longitude": "-71.0839219611093",
          "completed": true
        },
        {
          "id": 1,
          "visit_order": 37,
          "street_number": "9",
          "street_name": "DRUMMOND ST",
          "city": "DORCHESTER",
          "zip_code": 2121,
          "latitude": "42.30080610473715",
          "longitude": "-71.08431199985287",
          "completed": true
        },
        {
          "id": 1,
          "visit_order": 38,
          "street_number": "40 HF40",
          "street_name": "GLENWAY ST",
          "city": "DORCHESTER",
          "zip_code": 2121,
          "latitude": "42.3011926139223",
          "longitude": "-71.08385351794573",
          "completed": true
        },
        {
          "id": 1,
          "visit_order": 39,
          "street_number": "35",
          "street_name": "GLENWAY ST",
          "city": "DORCHESTER",
          "zip_code": 2121,
          "latitude": "42.30104511702575",
          "longitude": "-71.08445425475699",
          "completed": true
        },
        {
          "id": 1,
          "visit_order": 40,
          "street_number": "28",
          "street_name": "GLENWAY ST",
          "city": "DORCHESTER",
          "zip_code": 2121,
          "latitude": "42.3014259653137",
          "longitude": "-71.08408257158405",
          "completed": true
        },
        {
          "id": 1,
          "visit_order": 41,
          "street_number": "28",
          "street_name": "ELLINGTON ST",
          "city": "DORCHESTER",
          "zip_code": 2121,
          "latitude": "42.3022579575658",
          "longitude": "-71.08385199637931",
          "completed": true
        },
        {
          "id": 1,
          "visit_order": 42,
          "street_number": "23",
          "street_name": "ELLINGTON ST",
          "city": "DORCHESTER",
          "zip_code": 2121,
          "latitude": "42.30202910927405",
          "longitude": "-71.08438219172179",
          "completed": true
        },
        {
          "id": 1,
          "visit_order": 43,
          "street_number": "38",
          "street_name": "COLUMBIA RD",
          "city": "DORCHESTER",
          "zip_code": 2121,
          "latitude": "42.30389054069225",
          "longitude": "-71.08333573846997",
          "completed": true
        }
      ]
    },
    {
      "id": 2,
      "group": "A1",
      "surveyor_id": 1,
      "homes": [
        {
          "id": 1,
          "visit_order": 0,
          "street_number": "38",
          "street_name": "COLUMBIA RD",
          "city": "DORCHESTER",
          "zip_code": 2121,
          "latitude": "42.30389054069225",
          "longitude": "-71.08333573846997",
          "completed": true
        },
        {
          "id": 1,
          "visit_order": 1,
          "street_number": "388",
          "street_name": "SEAVER ST",
          "city": "DORCHESTER",
          "zip_code": 2121,
          "latitude": "42.30396140002191",
          "longitude": "-71.08175456568082",
          "completed": false
        },
        {
          "id": 1,
          "visit_order": 2,
          "street_number": "407",
          "street_name": "SEAVER ST",
          "city": "DORCHESTER",
          "zip_code": 2121,
          "latitude": "42.303246092776",
          "longitude": "-71.08137065607954",
          "completed": false
        },
        {
          "id": 1,
          "visit_order": 3,
          "street_number": "412",
          "street_name": "SEAVER ST",
          "city": "DORCHESTER",
          "zip_code": 2121,
          "latitude": "42.3034207923003",
          "longitude": "-71.08091177675175",
          "completed": false
        },
        {
          "id": 1,
          "visit_order": 4,
          "street_number": "31",
          "street_name": "GLENARM ST",
          "city": "DORCHESTER",
          "zip_code": 2121,
          "latitude": "42.3038065430056",
          "longitude": "-71.08114065856697",
          "completed": true
        },
        {
          "id": 1,
          "visit_order": 5,
          "street_number": "22",
          "street_name": "GLENARM ST",
          "city": "DORCHESTER",
          "zip_code": 2121,
          "latitude": "42.3038398502742",
          "longitude": "-71.08046168726955",
          "completed": true
        },
        {
          "id": 1,
          "visit_order": 6,
          "street_number": "19",
          "street_name": "MERRILL ST",
          "city": "DORCHESTER",
          "zip_code": 2121,
          "latitude": "42.30366332851845",
          "longitude": "-71.08000341073918",
          "completed": true
        },
        {
          "id": 1,
          "visit_order": 7,
          "street_number": "15",
          "street_name": "FENELON ST",
          "city": "DORCHESTER",
          "zip_code": 2121,
          "latitude": "42.3035705192268",
          "longitude": "-71.07967614301478",
          "completed": true
        },
        {
          "id": 1,
          "visit_order": 8,
          "street_number": "427",
          "street_name": "SEAVER ST",
          "city": "DORCHESTER",
          "zip_code": 2121,
          "latitude": "42.30269666085155",
          "longitude": "-71.08054559373096",
          "completed": true
        },
        {
          "id": 1,
          "visit_order": 9,
          "street_number": "425",
          "street_name": "SEAVER ST",
          "city": "DORCHESTER",
          "zip_code": 2121,
          "latitude": "42.3027871311504",
          "longitude": "-71.08068250050073",
          "completed": true
        },
        {
          "id": 1,
          "visit_order": 10,
          "street_number": "52",
          "street_name": "ERIE ST",
          "city": "DORCHESTER",
          "zip_code": 2121,
          "latitude": "42.302344718115606",
          "longitude": "-71.0802765347629",
          "completed": true
        },
        {
          "id": 1,
          "visit_order": 11,
          "street_number": "56",
          "street_name": "ERIE ST",
          "city": "DORCHESTER",
          "zip_code": 2121,
          "latitude": "42.3022581770646",
          "longitude": "-71.08049811981127",
          "completed": true
        },
        {
          "id": 1,
          "visit_order": 12,
          "street_number": "58",
          "street_name": "ERIE ST",
          "city": "DORCHESTER",
          "zip_code": 2121,
          "latitude": "42.30221183756595",
          "longitude": "-71.08061581105792",
          "completed": false
        },
        {
          "id": 1,
          "visit_order": 13,
          "street_number": "40",
          "street_name": "HEWINS ST",
          "city": "DORCHESTER",
          "zip_code": 2121,
          "latitude": "42.30282544229305",
          "longitude": "-71.08119880796401",
          "completed": false
        },
        {
          "id": 1,
          "visit_order": 14,
          "street_number": "20",
          "street_name": "HEWINS ST",
          "city": "DORCHESTER",
          "zip_code": 2121,
          "latitude": "42.30329035094936",
          "longitude": "-71.0818948584769",
          "completed": false
        },
        {
          "id": 1,
          "visit_order": 15,
          "street_number": "15",
          "street_name": "HEWINS ST",
          "city": "DORCHESTER",
          "zip_code": 2121,
          "latitude": "42.303184886298496",
          "longitude": "-71.08239062886187",
          "completed": true
        },
        {
          "id": 1,
          "visit_order": 16,
          "street_number": "18",
          "street_name": "WOLCOTT ST",
          "city": "DORCHESTER",
          "zip_code": 2121,
          "latitude": "42.3030206797415",
          "longitude": "-71.0825527802559",
          "completed": true
        },
        {
          "id": 1,
          "visit_order": 17,
          "street_number": "22",
          "street_name": "WOLCOTT ST",
          "city": "DORCHESTER",
          "zip_code": 2121,
          "latitude": "42.302921448106346",
          "longitude": "-71.08241858083002",
          "completed": true
        },
        {
          "id": 1,
          "visit_order": 18,
          "street_number": "2",
          "street_name": "MICHIGAN AV",
          "city": "DORCHESTER",
          "zip_code": 2121,
          "latitude": "42.3031311675475",
          "longitude": "-71.08381025092461",
          "completed": true
        },
        {
          "id": 1,
          "visit_order": 19,
          "street_number": "14",
          "street_name": "MICHIGAN AV",
          "city": "DORCHESTER",
          "zip_code": 2121,
          "latitude": "42.30265038431455",
          "longitude": "-71.08311402340806",
          "completed": true
        },
        {
          "id": 1,
          "visit_order": 20,
          "street_number": "25",
          "street_name": "MICHIGAN AV",
          "city": "DORCHESTER",
          "zip_code": 2121,
          "latitude": "42.3022971190222",
          "longitude": "-71.08337377013359",
          "completed": true
        },
        {
          "id": 1,
          "visit_order": 21,
          "street_number": "132  138",
          "street_name": "ERIE ST",
          "city": "DORCHESTER",
          "zip_code": 2121,
          "latitude": "42.30118681700155",
          "longitude": "-71.08290657091305",
          "completed": true
        },
        {
          "id": 1,
          "visit_order": 22,
          "street_number": "81",
          "street_name": "ELLINGTON ST",
          "city": "DORCHESTER",
          "zip_code": 2121,
          "latitude": "42.30099180231015",
          "longitude": "-71.08214818511141",
          "completed": true
        },
        {
          "id": 1,
          "visit_order": 23,
          "street_number": "86",
          "street_name": "ELLINGTON ST",
          "city": "DORCHESTER",
          "zip_code": 2121,
          "latitude": "42.3013700500759",
          "longitude": "-71.08209752565895",
          "completed": true
        },
        {
          "id": 1,
          "visit_order": 24,
          "street_number": "136",
          "street_name": "ELLINGTON ST",
          "city": "DORCHESTER",
          "zip_code": 2121,
          "latitude": "42.30217575047925",
          "longitude": "-71.0800719908473",
          "completed": true
        },
        {
          "id": 1,
          "visit_order": 25,
          "street_number": "38",
          "street_name": "GREENWOOD ST",
          "city": "DORCHESTER",
          "zip_code": 2121,
          "latitude": "42.30083055491585",
          "longitude": "-71.07958850128722",
          "completed": true
        },
        {
          "id": 1,
          "visit_order": 26,
          "street_number": "54 A54",
          "street_name": "GREENWOOD ST",
          "city": "DORCHESTER",
          "zip_code": 2121,
          "latitude": "42.3002666323173",
          "longitude": "-71.07964526789175",
          "completed": true
        },
        {
          "id": 1,
          "visit_order": 27,
          "street_number": "24  26",
          "street_name": "HARLEM ST",
          "city": "DORCHESTER",
          "zip_code": 2121,
          "latitude": "42.3004336064236",
          "longitude": "-71.08104654997246",
          "completed": true
        },
        {
          "id": 1,
          "visit_order": 28,
          "street_number": "19",
          "street_name": "HARLEM ST",
          "city": "DORCHESTER",
          "zip_code": 2121,
          "latitude": "42.300029464862",
          "longitude": "-71.08093449894116",
          "completed": true
        },
        {
          "id": 1,
          "visit_order": 29,
          "street_number": "12  14",
          "street_name": "HARLEM ST",
          "city": "DORCHESTER",
          "zip_code": 2121,
          "latitude": "42.300338031414896",
          "longitude": "-71.08153224014654",
          "completed": true
        },
        {
          "id": 1,
          "visit_order": 30,
          "street_number": "63",
          "street_name": "GLENWAY ST",
          "city": "DORCHESTER",
          "zip_code": 2121,
          "latitude": "42.3004587911065",
          "longitude": "-71.0833365772121",
          "completed": true
        },
        {
          "id": 1,
          "visit_order": 31,
          "street_number": "37",
          "street_name": "FOWLER ST",
          "city": "DORCHESTER",
          "zip_code": 2121,
          "latitude": "42.30043725312095",
          "longitude": "-71.08232783521018",
          "completed": true
        },
        {
          "id": 1,
          "visit_order": 32,
          "street_number": "36  38",
          "street_name": "FOWLER ST",
          "city": "DORCHESTER",
          "zip_code": 2121,
          "latitude": "42.30073282747645",
          "longitude": "-71.08245993747805",
          "completed": true
        },
        {
          "id": 1,
          "visit_order": 33,
          "street_number": "63  61",
          "street_name": "FOWLER ST",
          "city": "DORCHESTER",
          "zip_code": 2121,
          "latitude": "42.30066637548415",
          "longitude": "-71.0813239415662",
          "completed": true
        },
        {
          "id": 1,
          "visit_order": 34,
          "street_number": "83  81",
          "street_name": "FOWLER ST",
          "city": "DORCHESTER",
          "zip_code": 2121,
          "latitude": "42.30082941565965",
          "longitude": "-71.08061715576187",
          "completed": true
        },
        {
          "id": 1,
          "visit_order": 35,
          "street_number": "47",
          "street_name": "MCLELLAN ST",
          "city": "DORCHESTER",
          "zip_code": 2121,
          "latitude": "42.29981984225595",
          "longitude": "-71.0844066870452",
          "completed": true
        },
        {
          "id": 1,
          "visit_order": 36,
          "street_number": "44",
          "street_name": "MCLELLAN ST",
          "city": "DORCHESTER",
          "zip_code": 2121,
          "latitude": "42.300154566882",
          "longitude": "-71.0839219611093",
          "completed": true
        },
        {
          "id": 1,
          "visit_order": 37,
          "street_number": "9",
          "street_name": "DRUMMOND ST",
          "city": "DORCHESTER",
          "zip_code": 2121,
          "latitude": "42.30080610473715",
          "longitude": "-71.08431199985287",
          "completed": true
        },
        {
          "id": 1,
          "visit_order": 38,
          "street_number": "40 HF40",
          "street_name": "GLENWAY ST",
          "city": "DORCHESTER",
          "zip_code": 2121,
          "latitude": "42.3011926139223",
          "longitude": "-71.08385351794573",
          "completed": true
        },
        {
          "id": 1,
          "visit_order": 39,
          "street_number": "35",
          "street_name": "GLENWAY ST",
          "city": "DORCHESTER",
          "zip_code": 2121,
          "latitude": "42.30104511702575",
          "longitude": "-71.08445425475699",
          "completed": true
        },
        {
          "id": 1,
          "visit_order": 40,
          "street_number": "28",
          "street_name": "GLENWAY ST",
          "city": "DORCHESTER",
          "zip_code": 2121,
          "latitude": "42.3014259653137",
          "longitude": "-71.08408257158405",
          "completed": true
        },
        {
          "id": 1,
          "visit_order": 41,
          "street_number": "28",
          "street_name": "ELLINGTON ST",
          "city": "DORCHESTER",
          "zip_code": 2121,
          "latitude": "42.3022579575658",
          "longitude": "-71.08385199637931",
          "completed": true
        },
        {
          "id": 1,
          "visit_order": 42,
          "street_number": "23",
          "street_name": "ELLINGTON ST",
          "city": "DORCHESTER",
          "zip_code": 2121,
          "latitude": "42.30202910927405",
          "longitude": "-71.08438219172179",
          "completed": true
        },
        {
          "id": 1,
          "visit_order": 43,
          "street_number": "38",
          "street_name": "COLUMBIA RD",
          "city": "DORCHESTER",
          "zip_code": 2121,
          "latitude": "42.30389054069225",
          "longitude": "-71.08333573846997",
          "completed": true
        }
      ]
    }
  ]
}
